NORAD_CAT_ID,OBJECT_NAME,OBJECT_TYPE,EPOCH,MEAN_MOTION,ECCENTRICITY,INCLINATION,RA_OF_ASC_NODE,ARG_OF_PERICENTER,MEAN_ANOMALY,BSTAR,MEAN_MOTION_DOT,MEAN_MOTION_DDOT,TLE_LINE0,TLE_LINE1,TLE_LINE2,SEMIMAJOR_AXIS,PERIOD,APOGEE,PERIGEE,DECAYED
53575.0,STARLINK-4551,PAYLOAD,2022-08-24 14:00:01,15.90314959,0.004049,53.2174,131.3891,56.0153,46.9477,-0.0038458,-0.01289729,0.00047798,0 STARLINK-4551,1 53575U 22101BA  22236.58334491 -.01289729  47798-3 -38458-2 0  9991,2 53575  53.2174 131.3891 0040490  56.0153  46.9477 15.90314959   779,6679.538000000001,90.548,328.4480000000001,274.357,0.0
53575.0,STARLINK-4551,PAYLOAD,2022-08-25 06:00:02,15.88612884,0.0031896,53.2171,128.012,57.3217,262.6355,-0.0045508,-0.01357775,0.00051661,0 STARLINK-4551,1 53575U 22101BA  22237.25002315 -.01357775  51661-3 -45508-2 0  9998,2 53575  53.2171 128.0120 0031896  57.3217 262.6355 15.88612884   877,6684.308000000001,90.645,327.493,284.853,0.0
53575.0,STARLINK-4551,PAYLOAD,2022-08-25 12:00:00,15.879625699999998,0.0030954,53.2175,126.7455,57.9589,252.2107,-0.0047291,-0.01361555,0.00051612,0 STARLINK-4551,1 53575U 22101BA  22237.50001157 -.01361555  51612-3 -47291-2 0  9997,2 53575  53.2175 126.7455 0030954  57.9589 252.2107 15.87962570   913,6686.1330000000025,90.682,328.694,287.302,0.0
53575.0,STARLINK-4551,PAYLOAD,2022-08-25 14:00:01,15.87713677,0.003019,53.2174,126.3234,57.5381,9.2719,-0.0045626,-0.01295325,0.00047021,0 STARLINK-4551,1 53575U 22101BA  22237.58334491 -.01295325  47021-3 -45626-2 0  9995,2 53575  53.2174 126.3234 0030190  57.5381   9.2719 15.87713677  1306,6686.831999999999,90.696,328.884,288.509,0.0
53575.0,STARLINK-4551,PAYLOAD,2022-08-25 18:00:00,15.87310986,0.0028014,53.2176,125.4818,58.1696,241.6908,-0.0049204999999999,-0.01360777,0.00051251,0 STARLINK-4551,1 53575U 22101BA  22237.75001157 -.01360777  51251-3 -49205-2 0  9995,2 53575  53.2176 125.4818 0028014  58.1696 241.6908 15.87310986   952,6687.962,90.719,328.5630000000001,291.092,0.0
53575.0,STARLINK-4551,PAYLOAD,2022-08-25 22:00:00,15.86863713,0.002648,53.2176,124.6409,57.2772,115.3883,-0.0049416,-0.01332045,0.00049095,0 STARLINK-4551,1 53575U 22101BA  22237.91667824 -.01332045  49095-3 -49416-2 0  9996,2 53575  53.2176 124.6409 0026480  57.2772 115.3883 15.86863713  1308,6689.219,90.745,328.797,293.371,0.0
53575.0,STARLINK-4551,PAYLOAD,2022-08-26 12:00:00,15.85365039,0.0020533,53.2174,121.6975,58.5178,206.8922,-0.0055551,-0.01212401,0.0,0 STARLINK-4551,1 53575U 22101BA  22238.50001157 -.01212401  00000-0 -55551-2 0  9993,2 53575  53.2174 121.6975 0020533  58.5178 206.8922 15.85365039  1079,6693.434,90.831,329.043,301.555,0.0
53575.0,STARLINK-4551,PAYLOAD,2022-08-26 14:00:01,15.85121432,0.0019589,53.2172,121.2771,57.7463,323.5861,-0.0054082,-0.01169631,0.0,0 STARLINK-4551,1 53575U 22101BA  22238.58335648 -.01169631  00000-0 -54082-2 0  9990,2 53575  53.2172 121.2771 0019589  57.7463 323.5861 15.85121432  1306,6694.12,90.845,329.098,302.872,0.0
53575.0,STARLINK-4551,PAYLOAD,2022-08-26 22:00:00,15.8424863,0.0017249,53.2172,119.6012,56.5626,67.4377,-0.0056055,-0.0115781,0.0,0 STARLINK-4551,1 53575U 22101BA  22238.91667824 -.01157810  00000-0 -56055-2 0  9999,2 53575  53.2172 119.6012 0017249  56.5626  67.4377 15.84248630  1309,6696.578,90.895,329.994,306.892,0.0
53575.0,STARLINK-4551,PAYLOAD,2022-08-27 14:00:01,15.82535623,0.0010622,53.2175,116.2501,54.3867,271.9462,-0.0063595,-0.01214976,0.0,0 STARLINK-4551,1 53575U 22101BA  22239.58334491 -.01214976  00000-0 -63595-2 0  9998,2 53575  53.2175 116.2501 0010622  54.3867 271.9462 15.82535623  1305,6701.41,90.993,330.39300000000014,316.157,0.0
53575.0,STARLINK-4551,PAYLOAD,2022-08-27 20:00:01,15.81887506,0.0007926,53.2176,114.9979,49.1238,262.0088,-0.0065973999999999,-0.01218234,0.0,0 STARLINK-4551,1 53575U 22101BA  22239.83334491 -.01218234  00000-0 -65974-2 0  9990,2 53575  53.2176 114.9979 0007926  49.1238 262.0088 15.81887506  1288,6703.24,91.03,330.418,319.7920000000001,0.0
53575.0,STARLINK-4551,PAYLOAD,2022-08-27 22:00:00,15.81645798,0.0007243999999999,53.2176,114.5808,45.184,20.7596,-0.0064093,-0.01174498,0.0,0 STARLINK-4551,1 53575U 22101BA  22239.91667824 -.01174498  00000-0 -64093-2 0  9992,2 53575  53.2176 114.5808 0007244  45.1840  20.7596 15.81645798  1304,6703.9230000000025,91.044,330.644,320.932,0.0
53575.0,STARLINK-4551,PAYLOAD,2022-08-28 14:00:01,15.79929386,0.0003106,53.2172,111.2424,16.9651,245.0535,-0.0071668,-0.01204694,0.0,0 STARLINK-4551,1 53575U 22101BA  22240.58334491 -.01204694  00000-0 -71668-2 0  9996,2 53575  53.2172 111.2424 0003106  16.9651 245.0535 15.79929386  1307,6708.778,91.143,332.726,328.559,0.0
53575.0,STARLINK-4551,PAYLOAD,2022-08-28 20:00:01,15.79272116,0.0002892,53.2174,109.9953,11.6003,232.8743,-0.0073162999999999,-0.01194299,0.0,0 STARLINK-4551,1 53575U 22101BA  22240.83334491 -.01194299  00000-0 -73163-2 0  9995,2 53575  53.2174 109.9953 0002892  11.6003 232.8743 15.79272116  1446,6710.639,91.181,334.445,330.5630000000001,0.0
53575.0,STARLINK-4551,PAYLOAD,2022-08-28 22:00:00,15.79058137,0.000298,53.2174,109.5796,7.4608,351.0335,-0.0074186999999999,-0.01198706,0.0,0 STARLINK-4551,1 53575U 22101BA  22240.91667824 -.01198706  00000-0 -74187-2 0  9997,2 53575  53.2174 109.5796 0002980   7.4608 351.0335 15.79058137  1300,6711.245,91.194,335.11,331.11,0.0
53575.0,STARLINK-4551,PAYLOAD,2022-08-29 12:00:00,15.77538106,0.0003223,53.2175,106.6694,357.2971,77.5213,-0.0079321,-0.01196545,0.0,0 STARLINK-4551,1 53575U 22101BA  22241.50001157 -.01196545  00000-0 -79321-2 0  9998,2 53575  53.2175 106.6694 0003223 357.2971  77.5213 15.77538106  1555,6715.555,91.281,339.585,335.256,0.0
53575.0,STARLINK-4551,PAYLOAD,2022-08-29 14:00:01,15.77321847,0.0003263999999999,53.2175,106.254,6.0202,182.2975,-0.0080129,-0.01196983,0.0,0 STARLINK-4551,1 53575U 22101BA  22241.58334491 -.01196983  00000-0 -80129-2 0  9990,2 53575  53.2175 106.2540 0003264   6.0202 182.2975 15.77321847  1306,6716.169,91.294,340.226,335.842,0.0
53575.0,STARLINK-4551,PAYLOAD,2022-08-29 22:00:00,15.76445687,0.0003311,53.2174,104.5976,343.7618,297.9043,-0.0082314,-0.01183919,0.0,0 STARLINK-4551,1 53575U 22101BA  22241.91667824 -.01183919  00000-0 -82314-2 0  9999,2 53575  53.2174 104.5976 0003311 343.7618 297.9043 15.76445687  1302,6718.656999999997,91.345,342.747,338.298,0.0
53575.0,STARLINK-4551,PAYLOAD,2022-08-30 06:00:00,15.75585087,0.0002446,53.2172,102.9405,321.4534,52.5137,-0.0086363999999999,-0.01193714,0.0,0 STARLINK-4551,1 53575U 22101BA  22242.25001157 -.01193714  00000-0 -86364-2 0  9991,2 53575  53.2172 102.9405 0002446 321.4534  52.5137 15.75585087  1663,6721.104,91.395,344.61300000000006,341.325,0.0
53575.0,STARLINK-4551,PAYLOAD,2022-08-30 14:00:01,15.74867711,0.0001199999999999,53.2168,101.2855,343.4583,121.6888,-0.010501,-0.01405231,0.0,0 STARLINK-4551,1 53575U 22101BA  22242.58334491 -.01405231  00000-0 -10501-1 0  9996,2 53575  53.2168 101.2855 0001200 343.4583 121.6888 15.74867711  1302,6723.145,91.436,345.816,344.20300000000015,0.0
53575.0,STARLINK-4551,PAYLOAD,2022-08-30 20:00:01,15.73928163,0.0001543,53.2174,100.0472,31.9869,51.0235,-0.0058798,-0.00777639,0.0,0 STARLINK-4551,1 53575U 22101BA  22242.83334491 -.00777639  00000-0 -58798-2 0  9998,2 53575  53.2174 100.0472 0001543  31.9869  51.0235 15.73928163  1767,6725.82,91.491,348.723,346.647,0.0
53575.0,STARLINK-4551,PAYLOAD,2022-08-30 22:00:00,15.73780585,0.0001295,53.2174,99.6358,63.2067,132.2153,-0.0053431,-0.00707982,0.0,0 STARLINK-4551,1 53575U 22101BA  22242.91667824 -.00707982  00000-0 -53431-2 0  9999,2 53575  53.2174  99.6358 0001295  63.2067 132.2153 15.73780585  1300,6726.24,91.499,348.976,347.2340000000001,0.0
53575.0,STARLINK-4551,PAYLOAD,2022-08-31 14:00:01,15.73139983,0.0001273,53.2169,96.3338,65.9045,307.8203,0.00047047,0.00065755,0.0,0 STARLINK-4551,1 53575U 22101BA  22243.58334491  .00065755  00000-0  47047-3 0  9994,2 53575  53.2169  96.3338 0001273  65.9045 307.8203 15.73139983  1303,6728.066,91.537,350.788,349.075,0.0
53575.0,STARLINK-4551,PAYLOAD,2022-08-31 20:00:01,15.73250164,0.0001291999999999,53.2157,95.1019,56.9448,293.4765,-0.00062972,-0.00088264,0.0,0 STARLINK-4551,1 53575U 22101BA  22243.83334491 -.00088264  00000-0 -62972-3 0  9998,2 53575  53.2157  95.1019 0001292  56.9448 293.4765 15.73250164  1916,6727.752,91.53,350.486,348.74800000000016,0.0
53575.0,STARLINK-4551,PAYLOAD,2022-08-31 22:00:00,15.73206758,0.0001296,53.2157,94.69,53.417,49.2562,-0.00010863,-0.00015841,0.0,0 STARLINK-4551,1 53575U 22101BA  22243.91667824 -.00015841  00000-0 -10863-3 0  9999,2 53575  53.2157  94.6900 0001296  53.4170  49.2562 15.73206758  1302,6727.876,91.533,350.61300000000006,348.869,0.0
53575.0,STARLINK-4551,PAYLOAD,2022-09-01 04:00:01,15.73210129,0.0001247,53.2152,93.4522,50.9559,28.4789,0.00010426,0.00014043,0.0,0 STARLINK-4551,1 53575U 22101BA  22244.16668981  .00014043  00000-0  10426-3 0  9998,2 53575  53.2152  93.4522 0001247  50.9559  28.4789 15.73210129  1973,6727.866,91.533,350.57,348.892,0.0
53575.0,STARLINK-4551,PAYLOAD,2022-09-01 14:00:01,15.73223559,0.0001226,53.2158,91.3886,66.2574,214.3673,-0.00023144,-0.00033006,0.0,0 STARLINK-4551,1 53575U 22101BA  22244.58335648 -.00033006  00000-0 -23144-3 0  9998,2 53575  53.2158  91.3886 0001226  66.2574 214.3673 15.73223559  1309,6727.828,91.532,350.51800000000014,348.86800000000005,0.0
53575.0,STARLINK-4551,PAYLOAD,2022-09-01 20:00:01,15.73192002,0.0001399,53.2158,90.1532,58.0678,199.2689,0.00010976,0.00014806,0.0,0 STARLINK-4551,1 53575U 22101BA  22244.83335648  .00014806  00000-0  10976-3 0  9990,2 53575  53.2158  90.1532 0001399  58.0678 199.2689 15.73192002  2070,6727.918000000002,91.534,350.724,348.842,0.0
53575.0,STARLINK-4551,PAYLOAD,2022-09-01 22:00:00,15.73189348,0.0001411,53.2161,89.7413,56.1674,313.3347,0.0002214,0.00030551,0.0,0 STARLINK-4551,1 53575U 22101BA  22244.91667824  .00030551  00000-0  22140-3 0  9994,2 53575  53.2161  89.7413 0001411  56.1674 313.3347 15.73189348  1300,6727.926,91.534,350.74,348.841,0.0
